ONEWEB-0207             
1 48242U 21031AJ  25141.85666007  .00000142  00000+0  34759-3 0  9995
2 48242  87.9057   7.5366 0002017  80.4689 279.6668 13.14503630196882
ONEWEB-0208             
1 48243U 21031AK  25141.91453467  .00000233  00000+0  59410-3 0  9999
2 48243  87.9055   7.5393 0001875  89.8350 270.2994 13.14504758196904
ONEWEB-0200             
1 48244U 21031AL  25141.57360408 -.00000163  00000+0 -47361-3 0  9990
2 48244  87.9055   7.5993 0001853  86.4601 273.6741 13.14503132196798
ONEWEB-0217             
1 48245U 21031AM  25141.89393993 -.00000188  00000+0 -54231-3 0  9992
2 48245  87.9053   7.5202 0001852  92.8261 267.3081 13.14503669196783
ONEWEB-0211             
1 48767U 21045A   25141.59251730  .00000075  00000+0  16463-3 0  9993
2 48767  87.9047 337.2082 0001599  98.3218 261.8094 13.16078630192938
ONEWEB-0223             
1 48768U 21045B   25141.57408077 -.00000092  00000+0 -27936-3 0  9998
2 48768  87.9049 337.2462 0001432 101.7551 258.3740 13.15548986192910
ONEWEB-0230             
1 48769U 21045C   25142.07795762  .00000124  00000+0  29403-3 0  9990
2 48769  87.9032 337.1932 0001726  85.5545 274.5782 13.15547097194350
ONEWEB-0237             
1 48770U 21045D   25142.06687576  .00000176  00000+0  43267-3 0  9995
2 48770  87.9055 337.1658 0001512  97.6450 262.4852 13.15548457194090
